 2020  4 2 1914 13.0 L                                                         1
 ACTION:REG 25-09-01 09:36 OP:INSK STATUS:               ID:20200402191413     I
 2020-04-02-1914-13M.INSK__060                                                 6
 STAT SP IPHASW D HRMM SECON CODA AMPLIT PERI AZIMU VELO AIN AR TRES W  DIS CAZ7
 SK02 BZ IP     D 1915 42.18                                                    
 SK03 BZ IP     D 1915 44.70                                                    
 SK11 BZ IP       1915 34.25                                                    
 SK12 BZ IP       1915 35.29                                                    
 SK00 BN IS     D 1915 50.75                                                    
 SK00 BE IS     C 1915 50.59                                                    
 SK02 BN IS     C 1915 51.97                                                    
 SK02 BE IS     C 1915 51.30                                                    
 SK03 BN IS       1915 55.67                                                    
 SK03 BE IS       1915 55.66                                                    
 SK04 BZ IP     C 1915 38.44                                                    
 SK04 BN IS       1915 45.63                                                    
 SK04 BE IS       1915 45.55                                                    
 SK05 BZ IP     C 1915 37.81                                                    
 SK05 BN IS       1915 44.14                                                    
 SK05 BE IS       1915 44.16                                                    
 SK06 BZ IP     D 1915 39.39                                                    
 SK06 BN IS       1915 46.30                                                    
 SK06 BE IS       1915 46.71                                                    
 SK07 BZ IP     C 1915 39.23                                                    
 SK07 BN IS       1915 45.81                                                    
 SK07 BE IS       1915 46.05                                                    
 SK08 BZ IP     D 1915 35.54                                                    
 SK08 BN IS     D 1915 40.32                                                    
 SK08 BE IS     D 1915 40.14                                                    
 SK09 BZ IP     C 1915 33.04                                                    
 SK09 BN IS     C 1915 35.40                                                    
 SK09 BE IS     C 1915 35.43                                                    
 SK10 BZ IP     C 1915 34.07                                                    
 SK10 BN IS       1915 37.41                                                    
 SK10 BE IS       1915 37.38                                                    
 SK11 BN IS     C 1915 37.51                                                    
 SK11 BE IS       1915 37.47                                                    
 SK12 BN IS     C 1915 39.16                                                    
 SK12 BE IS       1915 39.20                                                    
 SK13 BZ IP     D 1915 37.86                                                    
 SK13 BN IS     C 1915 42.99                                                    
 SK13 BE IS     C 1915 42.99                                                    
 SK14 BZ IP     D 1915 41.01                                                    
 SK14 BN IS       1915 48.16                                                    
 SK14 BE IS       1915 48.48                                                    
 SK16 BZ IP     D 1915 38.47                                                    
 SK16 BN IS     C 1915 44.36                                                    
 SK16 BE IS       1915 44.49                                                    
 SK17 BZ IP     C 1915 35.77                                                    
 SK17 BE IS       1915 41.10                                                    
 SK17 BN IS       1915 40.27                                                    
 SK18 BZ IP     C 1915 35.66                                                    
 SK18 BN IS     C 1915 39.52                                                    
 SK18 BE IS       1915 39.56                                                    
 SK20 BZ IP     D 1915 40.05                                                    
 SK20 BN IS       1915 47.38                                                    
 SK20 BE IS       1915 47.45                                                    
 SK22 BZ IP     C 1915 41.42                                                    
 SK22 BN IS       1915 50.08                                                    
 SK22 BE IS       1915 51.00                                                    
 SK23 BZ IP     D 1915 33.16                                                    
 SK23 BN IS       1915 35.99                                                    
 SK23 BE IS       1915 35.98                                                    
 SK00 BZ IP     C 1915 41.68                                                    
                                                                                
