 2020  4 2 1915 29.7 L  27.453  88.129 13.0  TES 20 1.0                        1
 GAP=210        2.79       3.4     5.5  8.2 -0.1027E+02 -0.1632E+02  0.7565E+01E
 ACTION:REG 25-09-01 09:36 OP:INSK STATUS:               ID:20200402191413     I
 2020-04-02-1914-13M.INSK__060                                                 6
 STAT SP IPHASW D HRMM SECON CODA AMPLIT PERI AZIMU VELO AIN AR TRES W  DIS CAZ7
 SK23 BZ IP     D 1915 33.16                             167    0.4110 3.39  52 
 SK23 BE IS       1915 35.98                             167    1.1810 3.39  52 
 SK23 BN IS       1915 35.99                             167    1.1910 3.39  52 
 SK10 BZ IP     C 1915 34.07                             112   -0.3410 22.5 194 
 SK10 BE IS       1915 37.38                             112   -0.1910 22.5 194 
 SK10 BN IS       1915 37.41                             112   -0.1610 22.5 194 
 SK11 BZ IP       1915 34.25                             110   -0.3910 24.1 111 
 SK11 BE IS       1915 37.47                             110   -0.4810 24.1 111 
 SK11 BN IS     C 1915 37.51                             110   -0.4410 24.1 111 
 SK09 BZ IP     C 1915 33.04                             104   -2.2710 28.7 162 
 SK09 BN IS     C 1915 35.40                             104   -3.6810 28.7 162 
 SK09 BE IS     C 1915 35.43                             104   -3.6510 28.7 162 
 SK12 BZ IP       1915 35.29                             101   -0.4510 31.9 121 
 SK12 BN IS     C 1915 39.16                             101   -0.6410 31.9 121 
 SK12 BE IS       1915 39.20                             101   -0.6010 31.9 121 
 SK08 BZ IP     D 1915 35.54                             100   -0.4010 33.7 146 
 SK08 BE IS     D 1915 40.14                             100    0.0110 33.7 146 
 SK08 BN IS     D 1915 40.32                             100    0.1910 33.7 146 
 SK17 BZ IP     C 1915 35.77                             101   -0.3710 33.8 187 
 SK17 BN IS       1915 40.27                             101   -0.2010 33.8 187 
 SK17 BE IS       1915 41.10                             101    0.6310 33.8 187 
 SK18 BZ IP     C 1915 35.66                             100   -0.3810 34.0  70 
 SK18 BN IS     C 1915 39.52                             100   -0.7710 34.0  70 
 SK18 BE IS       1915 39.56                             100   -0.7310 34.0  70 
 SK13 BZ IP     D 1915 37.86                              96   -0.1710 46.6 103 
 SK13 BN IS     C 1915 42.99                              96   -0.6210 46.6 103 
 SK13 BE IS     C 1915 42.99                              96   -0.6210 46.6 103 
 SK05 BZ IP     C 1915 37.81                              96   -0.2510 46.9 162 
 SK05 BN IS       1915 44.14                              96    0.4710 46.9 162 
 SK05 BE IS       1915 44.16                              96    0.4910 46.9 162 
 SK16 BZ IP     D 1915 38.47                              95   -0.0210 49.9  79 
 SK16 BN IS     C 1915 44.36                              95   -0.0310 49.9  79 
 SK16 BE IS       1915 44.49                              95    0.1010 49.9  79 
 SK04 BZ IP     C 1915 38.44                              95   -0.3910 51.7 181 
 SK04 BE IS       1915 45.55                              95    0.5910 51.7 181 
 SK04 BN IS       1915 45.63                              95    0.6710 51.7 181 
 SK06 BZ IP     D 1915 39.39                              95   -0.0110 55.7 139 
 SK06 BN IS       1915 46.30                              95    0.4010 55.7 139 
 SK06 BE IS       1915 46.71                              95    0.8110 55.7 139 
 SK07 BZ IP     C 1915 39.23                              94   -0.1810 56.4 123 
 SK07 BN IS       1915 45.81                              94   -0.1010 56.4 123 
 SK07 BE IS       1915 46.05                              94    0.1410 56.4 123 
 SK20 BZ IP     D 1915 40.05                              94   -0.2910 60.5  43 
 SK20 BN IS       1915 47.38                              94   -0.0910 60.5  43 
 SK20 BE IS       1915 47.45                              94   -0.0210 60.5  43 
 SK14 BZ IP     D 1915 41.01                              94    0.1310 63.9  98 
 SK14 BN IS       1915 48.16                              94   -0.2210 63.9  98 
 SK14 BE IS       1915 48.48                              94    0.1010 63.9  98 
 SK22 BZ IP     C 1915 41.42                              94   -0.1710 68.7  55 
 SK22 BN IS       1915 50.08                              94    0.5110 68.7  55 
 SK22 BE IS       1915 51.00                              94    1.4310 68.7  55 
 SK00 BZ IP     C 1915 41.68                              93    0.0410 71.1 171 
 SK00 BE IS     C 1915 50.59                              93    0.9510 71.1 171 
 SK00 BN IS     D 1915 50.75                              93    1.1110 71.1 171 
 SK02 BZ IP     D 1915 42.18                              93    0.0110 74.2 130 
 SK02 BE IS     C 1915 51.30                              93    0.7610 74.2 130 
 SK02 BN IS     C 1915 51.97                              93    1.4310 74.2 130 
 SK03 BZ IP     D 1915 44.70                              93    0.8810 85.4 145 
 SK03 BE IS       1915 55.66                              93    2.3710 85.4 145 
 SK03 BN IS       1915 55.67                              93    2.3810 85.4 145 
                                                                                
