 2020  4 1  8 2 52.6 L                                                         1
 2020-04-01-0802-52M.INSK__024                                                 6
 STAT SP IPHASW D HRMM SECON CODA AMPLIT PERI AZIMU VELO AIN AR TRES W  DIS CAZ7
 SK00 BZ IS        8 5 40.98                                                    
 SK00 BZ IP     C  8 5 13.19                                                    
 SK00 BE IS        8 5 40.67                                                    
 SK00 BN IS        8 5 40.05                                                    
                                                                                
