 2020  4 1 23 3 22.2 L                                                         1
 2020-04-01-2303-22M.INSK__027                                                 6
 STAT SP IPHASW D HRMM SECON CODA AMPLIT PERI AZIMU VELO AIN AR TRES W  DIS CAZ7
                                                                                
