 2020  4 2 1914 13.0 L                                                         1
 2020-04-02-1914-13M.INSK__060                                                 6
 STAT SP IPHASW D HRMM SECON CODA AMPLIT PERI AZIMU VELO AIN AR TRES W  DIS CAZ7
                                                                                
